[{"OBJECT_NAME":"IRIDIUM 124","OBJECT_ID":"2017-039H","EPOCH":"2026-03-09T23:29:37.068864","MEAN_MOTION":14.432748,"ECCENTRICITY":0.0002084,"INCLINATION":86.4531,"RA_OF_ASC_NODE":331.8553,"ARG_OF_PERICENTER":84.6213,"MEAN_ANOMALY":275.5226,"EPHEMERIS_TYPE":0,"CLASSIFICATION_TYPE":"U","NORAD_CAT_ID":42810,"ELEMENT_SET_NO":999,"REV_AT_EPOCH":46080,"BSTAR":0.00013794234,"MEAN_MOTION_DOT":4.84e-6,"MEAN_MOTION_DDOT":0},{"OBJECT_NAME":"UNKNOWN","OBJECT_ID":"","EPOCH":"2026-03-08T02:48:39.751200","MEAN_MOTION":14.45719677,"ECCENTRICITY":0.00370802,"INCLINATION":81.2859,"RA_OF_ASC_NODE":19.8781,"ARG_OF_PERICENTER":179.3392,"MEAN_ANOMALY":180.7855,"EPHEMERIS_TYPE":0,"CLASSIFICATION_TYPE":"U","NORAD_CAT_ID":270323,"ELEMENT_SET_NO":999,"REV_AT_EPOCH":28969,"BSTAR":0.0046453608,"MEAN_MOTION_DOT":0.0001663,"MEAN_MOTION_DDOT":0}]
